SL-4 R/B                
1 39679U 14021B   26036.67310653  .00019171  00000+0  43274-3 0  9991
2 39679  51.6065 133.3414 0099048 346.3080  13.5221 15.38168742651340
ALOS-2                  
1 39766U 14029A   26036.93143976  .00000148  00000+0  26696-4 0  9991
2 39766  97.9220 135.9856 0001500  96.0921 264.0462 14.79484990632170
YAOGAN-29               
1 41038U 15069A   26037.01469633  .00000254  00000+0  37972-4 0  9999
2 41038  98.0172  65.3540 0002836  88.9837 271.1701 14.82956742551187
ASTRO-H (HITOMI)        
1 41337U 16012A   26036.77007527  .00005259  00000+0  31185-3 0  9991
2 41337  30.9980 202.4944 0009867  11.6980 348.3886 15.09771099547407
HXMT (HUIYAN)           
1 42758U 17034A   26036.91491457  .00010152  00000+0  50890-3 0  9991
2 42758  43.0133 193.2692 0031156  31.5486 328.7222 15.17043004477714
CZ-2C R/B               
1 43521U 18054D   26036.69356123  .00383685  57499-4  97534-3 0  9997
2 43521  35.1296 163.7715 0013223 352.0460   8.0068 15.94208740423768
SAOCOM 1A               
1 43641U 18076A   26036.96300863  .00001294  00000+0  16911-3 0  9998
2 43641  97.8863 225.5859 0001454  84.4421 275.6958 14.82157778396666
H-2A R/B                
1 43682U 18084L   26036.51776264  .00029673  00000+0  73726-3 0  9993
2 43682  98.8756 247.0647 0026298 133.5764 226.7667 15.39926733400822
SAOCOM 1B               
1 46265U 20059A   26036.99426097  .00000711  00000+0  95855-4 0  9996
2 46265  97.8858 224.7150 0001331  82.6165 277.5199 14.82161087294055
CSS (TIANHE)            
1 48274U 21035A   26036.96104746  .00033104  00000+0  41145-3 0  9998
2 48274  41.4677  41.0110 0005480   9.4748 350.6192 15.59269084272659
COSMOS 2550             
1 48865U 21056A   26036.82644853  .00002473  00000+0  80990-4 0  9997
2 48865  67.1430 137.3119 0008254 270.3406  89.6802 15.33827470258570
CZ-2C R/B               
1 52794U 22058K   26036.40616301  .00043938  00000+0  69408-3 0  9998
2 52794  50.1890 124.0666 0042367  63.8858 296.6462 15.51968467205113
